{
  "type": "FeatureCollection",
  "features": [
    {
      "type": "Feature",
      "properties": {
        "norad_id": 40376,
        "name": "SMAP",
        "group": "resource",
        "lat": 14.555481213698881,
        "lon": 2.563417081686153,
        "alt_km": 683.0497753131376,
        "timestamp": "2025-12-26T03:50:11.744939+00:00",
        "meta_object_name": "SMAP",
        "meta_object_id": "2015-003A",
        "meta_epoch": "2025-12-25T19:33:51.831072",
        "meta_mean_motion": 14.63360823,
        "meta_eccentricity": 0.0001237,
        "meta_inclination": 98.1291,
        "meta_ra_of_asc_node": 4.3506,
        "meta_arg_of_pericenter": 92.2077,
        "meta_mean_anomaly": 267.9267,
        "meta_ephemeris_type": 0,
        "meta_classification_type": "U",
        "meta_norad_cat_id": 40376,
        "meta_element_set_no": 999,
        "meta_rev_at_epoch": 58226,
        "meta_bstar": 0.00011863,
        "meta_mean_motion_dot": 5.66e-06,
        "meta_mean_motion_ddot": 0,
        "tle_line1": "1 40376U 15003A   25359.81518323  .00000566  00000+0  11863-3 0  9992",
        "tle_line2": "2 40376  98.1291   4.3506 0001237  92.2077 267.9267 14.63360823582268"
      },
      "geometry": {
        "type": "Point",
        "coordinates": [
          2.563417081686153,
          14.555481213698881
        ]
      }
    },
    {
      "type": "Feature",
      "properties": {
        "norad_id": 40536,
        "name": "KOMPSAT-3A",
        "group": "resource",
        "lat": 5.306433524659868,
        "lon": -25.46524003779961,
        "alt_km": 435.5482922587089,
        "timestamp": "2025-12-26T03:50:11.744949+00:00",
        "meta_object_name": "KOMPSAT-3A",
        "meta_object_id": "2015-014A",
        "meta_epoch": "2025-12-25T21:35:36.856896",
        "meta_mean_motion": 15.44428738,
        "meta_eccentricity": 0.0005626,
        "meta_inclination": 97.6808,
        "meta_ra_of_asc_node": 334.9782,
        "meta_arg_of_pericenter": 98.3462,
        "meta_mean_anomaly": 261.8423,
        "meta_ephemeris_type": 0,
        "meta_classification_type": "U",
        "meta_norad_cat_id": 40536,
        "meta_element_set_no": 999,
        "meta_rev_at_epoch": 59498,
        "meta_bstar": 0.00045401,
        "meta_mean_motion_dot": 0.00020941,
        "meta_mean_motion_ddot": 0,
        "tle_line1": "1 40536U 15014A   25359.89973214  .00020941  00000+0  45401-3 0  9998",
        "tle_line2": "2 40536  97.6808 334.9782 0005626  98.3462 261.8423 15.44428738594982"
      },
      "geometry": {
        "type": "Point",
        "coordinates": [
          -25.46524003779961,
          5.306433524659868
        ]
      }
    },
    {
      "type": "Feature",
      "properties": {
        "norad_id": 40697,
        "name": "SENTINEL-2A",
        "group": "resource",
        "lat": 64.90466154832386,
        "lon": -88.70651494195113,
        "alt_km": 781.9923598414316,
        "timestamp": "2025-12-26T03:50:11.744959+00:00",
        "meta_object_name": "SENTINEL-2A",
        "meta_object_id": "2015-028A",
        "meta_epoch": "2025-12-25T20:35:38.968224",
        "meta_mean_motion": 14.30810126,
        "meta_eccentricity": 0.0001052,
        "meta_inclination": 98.5726,
        "meta_ra_of_asc_node": 72.2069,
        "meta_arg_of_pericenter": 87.9478,
        "meta_mean_anomaly": 272.1825,
        "meta_ephemeris_type": 0,
        "meta_classification_type": "U",
        "meta_norad_cat_id": 40697,
        "meta_element_set_no": 999,
        "meta_rev_at_epoch": 54894,
        "meta_bstar": 1.6363e-05,
        "meta_mean_motion_dot": -1e-08,
        "meta_mean_motion_ddot": 0,
        "tle_line1": "1 40697U 15028A   25359.85808991 -.00000001  00000+0  16363-4 0  9998",
        "tle_line2": "2 40697  98.5726  72.2069 0001052  87.9478 272.1825 14.30810126548945"
      },
      "geometry": {
        "type": "Point",
        "coordinates": [
          -88.70651494195113,
          64.90466154832386
        ]
      }
    },
    {
      "type": "Feature",
      "properties": {
        "norad_id": 40701,
        "name": "GAOFEN-8",
        "group": "resource",
        "lat": -32.131478308681736,
        "lon": -176.17238862365542,
        "alt_km": 459.5306223772077,
        "timestamp": "2025-12-26T03:50:11.744969+00:00",
        "meta_object_name": "GAOFEN-8",
        "meta_object_id": "2015-030A",
        "meta_epoch": "2025-12-25T20:10:31.293408",
        "meta_mean_motion": 15.39033929,
        "meta_eccentricity": 0.0011437,
        "meta_inclination": 97.6903,
        "meta_ra_of_asc_node": 178.6242,
        "meta_arg_of_pericenter": 93.4891,
        "meta_mean_anomaly": 266.7662,
        "meta_ephemeris_type": 0,
        "meta_classification_type": "U",
        "meta_norad_cat_id": 40701,
        "meta_element_set_no": 999,
        "meta_rev_at_epoch": 58472,
        "meta_bstar": 0.00069187,
        "meta_mean_motion_dot": 0.00026777,
        "meta_mean_motion_ddot": 0,
        "tle_line1": "1 40701U 15030A   25359.84063997  .00026777  00000+0  69187-3 0  9993",
        "tle_line2": "2 40701  97.6903 178.6242 0011437  93.4891 266.7662 15.39033929584723"
      },
      "geometry": {
        "type": "Point",
        "coordinates": [
          -176.17238862365542,
          -32.131478308681736
        ]
      }
    },
    {
      "type": "Feature",
      "properties": {
        "norad_id": 40718,
        "name": "CARBONITE 1 (CBNT-1)",
        "group": "resource",
        "lat": 75.46905981725378,
        "lon": 149.4214685047094,
        "alt_km": 607.9598366594391,
        "timestamp": "2025-12-26T03:50:11.744979+00:00",
        "meta_object_name": "CARBONITE 1 (CBNT-1)",
        "meta_object_id": "2015-032D",
        "meta_epoch": "2025-12-25T19:23:24.097056",
        "meta_mean_motion": 14.82809457,
        "meta_eccentricity": 0.0015417,
        "meta_inclination": 97.6406,
        "meta_ra_of_asc_node": 180.2776,
        "meta_arg_of_pericenter": 139.1726,
        "meta_mean_anomaly": 221.0647,
        "meta_ephemeris_type": 0,
        "meta_classification_type": "U",
        "meta_norad_cat_id": 40718,
        "meta_element_set_no": 999,
        "meta_rev_at_epoch": 56364,
        "meta_bstar": 0.00070681,
        "meta_mean_motion_dot": 5.681e-05,
        "meta_mean_motion_ddot": 0,
        "tle_line1": "1 40718U 15032D   25359.80791779  .00005681  00000+0  70681-3 0  9997",
        "tle_line2": "2 40718  97.6406 180.2776 0015417 139.1726 221.0647 14.82809457563646"
      },
      "geometry": {
        "type": "Point",
        "coordinates": [
          149.4214685047094,
          75.46905981725378
        ]
      }
    },
    {
      "type": "Feature",
      "properties": {
        "norad_id": 40878,
        "name": "YAOGAN-27",
        "group": "resource",
        "lat": 14.483186512171157,
        "lon": -13.466403288212138,
        "alt_km": 1203.4617586368176,
        "timestamp": "2025-12-26T03:50:11.744990+00:00",
        "meta_object_name": "YAOGAN-27",
        "meta_object_id": "2015-040A",
        "meta_epoch": "2025-12-25T20:27:50.228352",
        "meta_mean_motion": 13.16061658,
        "meta_eccentricity": 0.000757,
        "meta_inclination": 100.1023,
        "meta_ra_of_asc_node": 348.8796,
        "meta_arg_of_pericenter": 254.0975,
        "meta_mean_anomaly": 105.9305,
        "meta_ephemeris_type": 0,
        "meta_classification_type": "U",
        "meta_norad_cat_id": 40878,
        "meta_element_set_no": 999,
        "meta_rev_at_epoch": 49486,
        "meta_bstar": -1.6827e-05,
        "meta_mean_motion_dot": -4.9e-07,
        "meta_mean_motion_ddot": 0,
        "tle_line1": "1 40878U 15040A   25359.85266468 -.00000049  00000+0 -16827-4 0  9998",
        "tle_line2": "2 40878 100.1023 348.8796 0007570 254.0975 105.9305 13.16061658494863"
      },
      "geometry": {
        "type": "Point",
        "coordinates": [
          -13.466403288212138,
          14.483186512171157
        ]
      }
    },
    {
      "type": "Feature",
      "properties": {
        "norad_id": 40894,
        "name": "GAOFEN-9 01",
        "group": "resource",
        "lat": -17.62918269873249,
        "lon": 40.9836177427214,
        "alt_km": 607.6792344221212,
        "timestamp": "2025-12-26T03:50:11.745001+00:00",
        "meta_object_name": "GAOFEN-9 01",
        "meta_object_id": "2015-047A",
        "meta_epoch": "2025-12-25T21:26:11.503680",
        "meta_mean_motion": 14.82453744,
        "meta_eccentricity": 0.0027318,
        "meta_inclination": 97.6526,
        "meta_ra_of_asc_node": 38.2797,
        "meta_arg_of_pericenter": 351.6682,
        "meta_mean_anomaly": 8.4075,
        "meta_ephemeris_type": 0,
        "meta_classification_type": "U",
        "meta_norad_cat_id": 40894,
        "meta_element_set_no": 999,
        "meta_rev_at_epoch": 55451,
        "meta_bstar": 0.00015258,
        "meta_mean_motion_dot": 1.18e-05,
        "meta_mean_motion_ddot": 0,
        "tle_line1": "1 40894U 15047A   25359.89318870  .00001180  00000+0  15258-3 0  9993",
        "tle_line2": "2 40894  97.6526  38.2797 0027318 351.6682   8.4075 14.82453744554516"
      },
      "geometry": {
        "type": "Point",
        "coordinates": [
          40.9836177427214,
          -17.62918269873249
        ]
      }
    }
  ]
}